CTC2_L_00559014-08
1 10124U 24085KL  26075.70049769  .00000000  00000+0  00000-0 0  9998
2 10124  99.0000 156.0000 0000000   0.0000 349.3333 13.98210060    19
CTC2_L_00559014-09
1 10125U 25762DH  26075.70049769  .00000000  00000+0  00000-0 0  9992
2 10125  99.0000 156.0000 0000000   0.0000  29.3333 13.98210060    15
CTC2_L_00559015-01
1 10126U 25145IF  26075.70049769  .00000000  00000+0  00000-0 0  9998
2 10126  99.0000 168.0000 0000000   0.0000  74.6667 13.98210060    12
CTC2_L_00559015-02
1 10127U 24260HT  26075.70049769  .00000000  00000+0  00000-0 0  9996
2 10127  99.0000 168.0000 0000000   0.0000 114.6667 13.98210060    18
CTC2_L_00559015-03
1 10128U 24508FK  26075.70049769  .00000000  00000+0  00000-0 0  9992
2 10128  99.0000 168.0000 0000000   0.0000 154.6667 13.98210060    13
CTC2_L_00559015-04
1 10129U 23286KR  26075.70049769  .00000000  00000+0  00000-0 0  9995
2 10129  99.0000 168.0000 0000000   0.0000 194.6667 13.98210060    18
CTC2_L_00559015-05
1 10130U 26890WE  26075.70049769  .00000000  00000+0  00000-0 0  9991
2 10130  99.0000 168.0000 0000000   0.0000 234.6667 13.98210060    15
CTC2_L_00559015-06
1 10131U 24103RW  26075.70049769  .00000000  00000+0  00000-0 0  9997
2 10131  99.0000 168.0000 0000000   0.0000 274.6667 13.98210060    10
CTC2_L_00559015-07
1 10132U 23948PD  26075.70049769  .00000000  00000+0  00000-0 0  9994
2 10132  99.0000 168.0000 0000000   0.0000 314.6667 13.98210060    16
CTC2_L_00559015-08
1 10133U 24185HY  26075.70049769  .00000000  00000+0  00000-0 0  9999
2 10133  99.0000 168.0000 0000000   0.0000 354.6667 13.98210060    11
CTC2_L_00559015-09
1 10134U 24874FG  26075.70049769  .00000000  00000+0  00000-0 0  9995
2 10134  99.0000 168.0000 0000000   0.0000  34.6667 13.98210060    17
CTC2_L_00559016-01
1 10135U 26894BT  26075.70049769  .00000000  00000+0  00000-0 0  9990
2 10135  99.0000 180.0000 0000000   0.0000  80.0000 13.98210060    18
CTC2_L_00559016-02
1 10136U 23964FX  26075.70049769  .00000000  00000+0  00000-0 0  9996
2 10136  99.0000 180.0000 0000000   0.0000 120.0000 13.98210060    14
CTC2_L_00559016-03
1 10137U 22175KL  26075.70049769  .00000000  00000+0  00000-0 0  9990
2 10137  99.0000 180.0000 0000000   0.0000 160.0000 13.98210060    19
CTC2_L_00559016-04
1 10138U 25773FO  26075.70049769  .00000000  00000+0  00000-0 0  9998
2 10138  99.0000 180.0000 0000000   0.0000 200.0000 13.98210060    15
CTC2_L_00559016-05
1 10139U 24016QX  26075.70049769  .00000000  00000+0  00000-0 0  9998
2 10139  99.0000 180.0000 0000000   0.0000 240.0000 13.98210060    10
CTC2_L_00559016-06
1 10140U 22695IJ  26075.70049769  .00000000  00000+0  00000-0 0  9991
2 10140  99.0000 180.0000 0000000   0.0000 280.0000 13.98210060    16
CTC2_L_00559016-07
1 10141U 26529DK  26075.70049769  .00000000  00000+0  00000-0 0  9992
2 10141  99.0000 180.0000 0000000   0.0000 320.0000 13.98210060    12
CTC2_L_00559016-08
1 10142U 23558IU  26075.70049769  .00000000  00000+0  00000-0 0  9992
2 10142  99.0000 180.0000 0000000   0.0000   0.0000 13.98210060    18
CTC2_L_00559016-09
1 10143U 22110XR  26075.70049769  .00000000  00000+0  00000-0 0  9996
2 10143  99.0000 180.0000 0000000   0.0000  40.0000 13.98210060    13
CTC2_L_00559017-01
1 10144U 24881QE  26075.70049769  .00000000  00000+0  00000-0 0  9994
2 10144  99.0000 192.0000 0000000   0.0000  85.3333 13.98210060    18
CTC2_L_00559017-02
1 10145U 26981WL  26075.70049769  .00000000  00000+0  00000-0 0  9998
2 10145  99.0000 192.0000 0000000   0.0000 125.3333 13.98210060    14
CTC2_L_00559017-03
1 10146U 22379SD  26075.70049769  .00000000  00000+0  00000-0 0  9996
2 10146  99.0000 192.0000 0000000   0.0000 165.3333 13.98210060    19
CTC2_L_00559017-04
1 10147U 22400EH  26075.70049769  .00000000  00000+0  00000-0 0  9992
2 10147  99.0000 192.0000 0000000   0.0000 205.3333 13.98210060    15
CTC2_L_00559017-05
1 10148U 23587EC  26075.70049769  .00000000  00000+0  00000-0 0  9990
2 10148  99.0000 192.0000 0000000   0.0000 245.3333 13.98210060    10
CTC2_L_00559017-06
1 10149U 24180MI  26075.70049769  .00000000  00000+0  00000-0 0  9991
2 10149  99.0000 192.0000 0000000   0.0000 285.3333 13.98210060    15
CTC2_L_00559017-07
1 10150U 23625CP  26075.70049769  .00000000  00000+0  00000-0 0  9996
2 10150  99.0000 192.0000 0000000   0.0000 325.3333 13.98210060    12
CTC2_L_00559017-08
1 10151U 25764GH  26075.70049769  .00000000  00000+0  00000-0 0  9993
2 10151  99.0000 192.0000 0000000   0.0000   5.3333 13.98210060    18
CTC2_L_00559017-09
1 10152U 22354YC  26075.70049769  .00000000  00000+0  00000-0 0  9996
2 10152  99.0000 192.0000 0000000   0.0000  45.3333 13.98210060    13
CTC2_L_00559018-01
1 10153U 26931WK  26075.70049769  .00000000  00000+0  00000-0 0  9992
2 10153  99.0000 204.0000 0000000   0.0000  90.6667 13.98210060    11
CTC2_L_00559018-02
1 10154U 23638VF  26075.70049769  .00000000  00000+0  00000-0 0  9994
2 10154  99.0000 204.0000 0000000   0.0000 130.6667 13.98210060    17
CTC2_L_00559018-03
1 10155U 23733US  26075.70049769  .00000000  00000+0  00000-0 0  9991
2 10155  99.0000 204.0000 0000000   0.0000 170.6667 13.98210060    12
CTC2_L_00559018-04
1 10156U 23368ZO  26075.70049769  .00000000  00000+0  00000-0 0  9996
2 10156  99.0000 204.0000 0000000   0.0000 210.6667 13.98210060    18
CTC2_L_00559018-05
1 10157U 24145KG  26075.70049769  .00000000  00000+0  00000-0 0  9991
2 10157  99.0000 204.0000 0000000   0.0000 250.6667 13.98210060    13
CTC2_L_00559018-06
1 10158U 23963IX  26075.70049769  .00000000  00000+0  00000-0 0  9999
2 10158  99.0000 204.0000 0000000   0.0000 290.6667 13.98210060    18
CTC2_L_00559018-07
1 10159U 22555IT  26075.70049769  .00000000  00000+0  00000-0 0  9996
2 10159  99.0000 204.0000 0000000   0.0000 330.6667 13.98210060    14
CTC2_L_00559018-08
1 10160U 24367QM  26075.70049769  .00000000  00000+0  00000-0 0  9991
2 10160  99.0000 204.0000 0000000   0.0000  10.6667 13.98210060    11
CTC2_L_00559018-09
1 10161U 22832JL  26075.70049769  .00000000  00000+0  00000-0 0  9997
2 10161  99.0000 204.0000 0000000   0.0000  50.6667 13.98210060    16
CTC2_L_00559019-01
1 10162U 25326JV  26075.70049769  .00000000  00000+0  00000-0 0  9999
2 10162  99.0000 216.0000 0000000   0.0000  96.0000 13.98210060    15
CTC2_L_00559019-02
1 10163U 22545XG  26075.70049769  .00000000  00000+0  00000-0 0  9990
2 10163  99.0000 216.0000 0000000   0.0000 136.0000 13.98210060    11
CTC2_L_00559019-03
1 10164U 23796JW  26075.70049769  .00000000  00000+0  00000-0 0  9990
2 10164  99.0000 216.0000 0000000   0.0000 176.0000 13.98210060    16
CTC2_L_00559019-04
1 10165U 26947VN  26075.70049769  .00000000  00000+0  00000-0 0  9992
2 10165  99.0000 216.0000 0000000   0.0000 216.0000 13.98210060    12
CTC2_L_00559019-05
1 10166U 23487BM  26075.70049769  .00000000  00000+0  00000-0 0  9999
2 10166  99.0000 216.0000 0000000   0.0000 256.0000 13.98210060    17
CTC2_L_00559019-06
1 10167U 25650CP  26075.70049769  .00000000  00000+0  00000-0 0  9994
2 10167  99.0000 216.0000 0000000   0.0000 296.0000 13.98210060    12
CTC2_L_00559019-07
1 10168U 22596SP  26075.70049769  .00000000  00000+0  00000-0 0  9991
2 10168  99.0000 216.0000 0000000   0.0000 336.0000 13.98210060    18
CTC2_L_00559019-08
1 10169U 26850TT  26075.70049769  .00000000  00000+0  00000-0 0  9999
2 10169  99.0000 216.0000 0000000   0.0000  16.0000 13.98210060    14
CTC2_L_00559019-09
1 10170U 23456EZ  26075.70049769  .00000000  00000+0  00000-0 0  9990
2 10170  99.0000 216.0000 0000000   0.0000  56.0000 13.98210060    10
CTC2_L_00559020-01
1 10171U 23387MH  26075.70049769  .00000000  00000+0  00000-0 0  9994
2 10171  99.0000 228.0000 0000000   0.0000 101.3333 13.98210060    17
CTC2_L_00559020-02
1 10172U 26829CT  26075.70049769  .00000000  00000+0  00000-0 0  9999
2 10172  99.0000 228.0000 0000000   0.0000 141.3333 13.98210060    12
CTC2_L_00559020-03
1 10173U 26293FU  26075.70049769  .00000000  00000+0  00000-0 0  9995
2 10173  99.0000 228.0000 0000000   0.0000 181.3333 13.98210060    17
CTC2_L_00559020-04
1 10174U 26531OD  26075.70049769  .00000000  00000+0  00000-0 0  9991
2 10174  99.0000 228.0000 0000000   0.0000 221.3333 13.98210060    13
CTC2_L_00559020-05
1 10175U 25709NU  26075.70049769  .00000000  00000+0  00000-0 0  9998
2 10175  99.0000 228.0000 0000000   0.0000 261.3333 13.98210060    18
CTC2_L_00559020-06
1 10176U 23265YG  26075.70049769  .00000000  00000+0  00000-0 0  9994
2 10176  99.0000 228.0000 0000000   0.0000 301.3333 13.98210060    14
CTC2_L_00559020-07
1 10177U 24087TE  26075.70049769  .00000000  00000+0  00000-0 0  9998
2 10177  99.0000 228.0000 0000000   0.0000 341.3333 13.98210060    19
CTC2_L_00559020-08
1 10178U 24270CN  26075.70049769  .00000000  00000+0  00000-0 0  9993
2 10178  99.0000 228.0000 0000000   0.0000  21.3333 13.98210060    15
CTC2_L_00559020-09
1 10179U 26958SS  26075.70049769  .00000000  00000+0  00000-0 0  9999
2 10179  99.0000 228.0000 0000000   0.0000  61.3333 13.98210060    10
CTC2_L_00559021-01
1 10180U 22670KX  26075.70049769  .00000000  00000+0  00000-0 0  9998
2 10180  99.0000 240.0000 0000000   0.0000 106.6667 13.98210060    19
CTC2_L_00559021-02
1 10181U 23212SQ  26075.70049769  .00000000  00000+0  00000-0 0  9992
2 10181  99.0000 240.0000 0000000   0.0000 146.6667 13.98210060    14
CTC2_L_00559021-03
1 10182U 26602IM  26075.70049769  .00000000  00000+0  00000-0 0  9999
2 10182  99.0000 240.0000 0000000   0.0000 186.6667 13.98210060    19
CTC2_L_00559021-04
1 10183U 25773PQ  26075.70049769  .00000000  00000+0  00000-0 0  9998
2 10183  99.0000 240.0000 0000000   0.0000 226.6667 13.98210060    15
CTC2_L_00559021-05
1 10184U 23723KA  26075.70049769  .00000000  00000+0  00000-0 0  9992
2 10184  99.0000 240.0000 0000000   0.0000 266.6667 13.98210060    10
CTC2_L_00559021-06
1 10185U 23681JH  26075.70049769  .00000000  00000+0  00000-0 0  9996
2 10185  99.0000 240.0000 0000000   0.0000 306.6667 13.98210060    16
